; Converted from move/pause script (input units: meters)
; Output units: millimeters (G21). Coordinates scaled by 1000.
G21         ; units: mm
G90         ; absolute positioning
G94         ; feed per minute (standard)
F1000

G0 X0.00 Y0.00 Z0.00
G4 S1.0

G0 X0.00 Y0.00 Z1000.00
G4 S1.0

G0 X-510.00 Y-510.00 Z1000.00
G0 X-510.00 Y-510.00 Z1100.00
G0 X510.00 Y-510.00 Z1100.00
G0 X510.00 Y-340.00 Z1100.00
G0 X-510.00 Y-340.00 Z1100.00
G0 X-510.00 Y-170.00 Z1100.00
G0 X510.00 Y-170.00 Z1100.00
G0 X510.00 Y0.00 Z1100.00
G0 X-510.00 Y0.00 Z1100.00
G0 X-510.00 Y170.00 Z1100.00
G0 X510.00 Y170.00 Z1100.00
G0 X510.00 Y340.00 Z1100.00
G0 X-510.00 Y340.00 Z1100.00
G0 X-510.00 Y510.00 Z1100.00
G0 X510.00 Y510.00 Z1100.00
G0 X510.00 Y510.00 Z1000.00

G0 X0.00 Y0.00 Z0.00
G4 S4.0

M2